[Satellite]
VERSION=1.1
NAME=NOAA 16
NICKNAME=NOAA 16
TLE1=1 26536U 00055A   15055.51284194  .00000109  00000-0  82326-4 0  9997
TLE2=2 26536  98.9553 121.5336 0010753 186.2083 173.8957 14.13076791743742
